ONEWEB-0578             
1 56067U 23043X   25347.26858057  .00000041  00000+0  67196-4 0  9995
2 56067  87.9219 281.0562 0001559  79.5235 280.6075 13.21824220133670
ONEWEB-0579             
1 56068U 23043Y   25347.25872466  .00000040  00000+0  66035-4 0  9995
2 56068  87.9222 281.0456 0002036  72.2227 287.9129 13.21827948133680
ONEWEB-0581             
1 56069U 23043Z   25347.26170027  .00000017  00000+0  11466-4 0  9993
2 56069  87.9047 265.8048 0001981  84.3325 275.8032 13.16595661134491
ONEWEB-0609             
1 56070U 23043AA  25347.29965272  .00000130  00000+0  31229-3 0  9996
2 56070  87.8994 296.3104 0001764  75.5223 284.6103 13.15549710131995
ONEWEB-0613             
1 56071U 23043AB  25347.29489459  .00000138  00000+0  33199-3 0  9991
2 56071  87.8993 296.3236 0001957  71.8802 288.2541 13.15549771131990
ONEWEB-0630             
1 56072U 23043AC  25347.29013675  .00000127  00000+0  30375-3 0  9996
2 56072  87.8992 296.2959 0001992  72.2259 287.9088 13.15550179131986
ONEWEB-0632             
1 56073U 23043AD  25347.28537700 -.00000040  00000+0 -13962-3 0  9995
2 56073  87.8990 296.3148 0001958  82.2346 277.9007 13.15550392131983
ONEWEB-0633             
1 56074U 23043AE  25347.27904842  .00000005  00000+0 -21289-4 0  9992
2 56074  87.8990 296.2793 0001944  66.7772 293.3562 13.15549982131963
